{"type": "FeatureCollection", "features": [ {"type": "Feature", "properties": {"norad_id": 34001, "name": "COSMOS 2251 DEB", "group": "cosmos-2251-debris", "lat": -36.999255507357006, "lon": 119.26596912122614, "alt_km": 786.3487001936373, "timestamp": "2025-12-09T21:34:11.802807+00:00", "meta": {"OBJECT_NAME": "COSMOS 2251 DEB", "OBJECT_ID": "1993-036GL", "EPOCH": "2025-12-09T07:46:23.862720", "MEAN_MOTION": 14.37091996, "ECCENTRICITY": 0.0019812, "INCLINATION": 74.0385, "RA_OF_ASC_NODE": 287.8681, "ARG_OF_PERICENTER": 9.6324, "MEAN_ANOMALY": 116.2775, "EPHEMERIS_TYPE": 0, "CLASSIFICATION_TYPE": "U", "NORAD_CAT_ID": 34001, "ELEMENT_SET_NO": 999, "REV_AT_EPOCH": 88097, "BSTAR": 0.0003932, "MEAN_MOTION_DOT": 1.144e-05, "MEAN_MOTION_DDOT": 0}, "tle": {"line1": "1 34001U 93036GL  25343.32388730  .00001144  00000+0  39320-3 0  9999", "line2": "2 34001  74.0385 287.8681 0019812   9.6324 116.2775 14.37091996880972"}}, "geometry": {"type": "Point", "coordinates": [119.26596912122614, -36.999255507357006]}}, {"type": "Feature", "properties": {"norad_id": 34003, "name": "COSMOS 2251 DEB", "group": "cosmos-2251-debris", "lat": -68.65037101682263, "lon": -116.97952892291856, "alt_km": 1046.687194508624, "timestamp": "2025-12-09T21:34:11.802817+00:00", "meta": {"OBJECT_NAME": "COSMOS 2251 DEB", "OBJECT_ID": "1993-036GN", "EPOCH": "2025-12-08T07:46:12.371520", "MEAN_MOTION": 13.8411183, "ECCENTRICITY": 0.02740033, "INCLINATION": 74.0787, "RA_OF_ASC_NODE": 292.5761, "ARG_OF_PERICENTER": 45.6277, "MEAN_ANOMALY": 316.6938, "EPHEMERIS_TYPE": 0, "CLASSIFICATION_TYPE": "U", "NORAD_CAT_ID": 34003, "ELEMENT_SET_NO": 999, "REV_AT_EPOCH": 84364, "BSTAR": 0.0031943304, "MEAN_MOTION_DOT": 4.737e-05, "MEAN_MOTION_DDOT": 0}, "tle": {"line1": "1 34003U 93036GN  25342.32375430  .00004737  00000+0  31943-2 0  9996", "line2": "2 34003  74.0787 292.5761 0274003  45.6277 316.6938 13.84111830843645"}}, "geometry": {"type": "Point", "coordinates": [-116.97952892291856, -68.65037101682263]}}, {"type": "Feature", "properties": {"norad_id": 34004, "name": "COSMOS 2251 DEB", "group": "cosmos-2251-debris", "lat": -16.180824307368578, "lon": -46.327608423621676, "alt_km": 710.368348725332, "timestamp": "2025-12-09T21:34:11.802827+00:00", "meta": {"OBJECT_NAME": "COSMOS 2251 DEB", "OBJECT_ID": "1993-036GP", "EPOCH": "2025-12-09T08:23:26.791296", "MEAN_MOTION": 14.48954791, "ECCENTRICITY": 0.00333157, "INCLINATION": 74.0363, "RA_OF_ASC_NODE": 319.4658, "ARG_OF_PERICENTER": 332.1121, "MEAN_ANOMALY": 27.8252, "EPHEMERIS_TYPE": 0, "CLASSIFICATION_TYPE": "U", "NORAD_CAT_ID": 34004, "ELEMENT_SET_NO": 999, "REV_AT_EPOCH": 87981, "BSTAR": 0.0021272229, "MEAN_MOTION_DOT": 8.098e-05, "MEAN_MOTION_DDOT": 0}, "tle": {"line1": "1 34004U 93036GP  25343.34961564  .00008098  00000+0  21272-2 0  9997", "line2": "2 34004  74.0363 319.4658 0033315 332.1121  27.8252 14.48954791879811"}}, "geometry": {"type": "Point", "coordinates": [-46.327608423621676, -16.180824307368578]}}, {"type": "Feature", "properties": {"norad_id": 34005, "name": "COSMOS 2251 DEB", "group": "cosmos-2251-debris", "lat": -13.903420878260727, "lon": -145.16458128348236, "alt_km": 747.0954959224091, "timestamp": "2025-12-09T21:34:11.802838+00:00", "meta": {"OBJECT_NAME": "COSMOS 2251 DEB", "OBJECT_ID": "1993-036GQ", "EPOCH": "2025-12-09T10:46:13.651104", "MEAN_MOTION": 14.40301081, "ECCENTRICITY": 0.00207253, "INCLINATION": 74.0448, "RA_OF_ASC_NODE": 219.7274, "ARG_OF_PERICENTER": 338.4609, "MEAN_ANOMALY": 194.9126, "EPHEMERIS_TYPE": 0, "CLASSIFICATION_TYPE": "U", "NORAD_CAT_ID": 34005, "ELEMENT_SET_NO": 999, "REV_AT_EPOCH": 88331, "BSTAR": 0.0001944481, "MEAN_MOTION_DOT": 5.91e-06, "MEAN_MOTION_DDOT": 0}, "tle": {"line1": "1 34005U 93036GQ  25343.44876911  .00000591  00000+0  19445-3 0  9990", "line2": "2 34005  74.0448 219.7274 0020725 338.4609 194.9126 14.40301081883319"}}, "geometry": {"type": "Point", "coordinates": [-145.16458128348236, -13.903420878260727]}}, {"type": "Feature", "properties": {"norad_id": 34006, "name": "COSMOS 2251 DEB", "group": "cosmos-2251-debris", "lat": 52.791887387283225, "lon": 171.12763601148038, "alt_km": 573.180482561208, "timestamp": "2025-12-09T21:34:11.802848+00:00", "meta": {"OBJECT_NAME": "COSMOS 2251 DEB", "OBJECT_ID": "1993-036GR", "EPOCH": "2025-12-08T05:56:44.562336", "MEAN_MOTION": 14.94253736, "ECCENTRICITY": 0.00116603, "INCLINATION": 74.0536, "RA_OF_ASC_NODE": 152.3261, "ARG_OF_PERICENTER": 104.3242, "MEAN_ANOMALY": 73.8105, "EPHEMERIS_TYPE": 0, "CLASSIFICATION_TYPE": "U", "NORAD_CAT_ID": 34006, "ELEMENT_SET_NO": 999, "REV_AT_EPOCH": 88601, "BSTAR": 0.0040023646, "MEAN_MOTION_DOT": 0.00043241, "MEAN_MOTION_DDOT": 0}, "tle": {"line1": "1 34006U 93036GR  25342.24773799  .00043241  00000+0  40024-2 0  9993", "line2": "2 34006  74.0536 152.3261 0011660 104.3242  73.8105 14.94253736886011"}}, "geometry": {"type": "Point", "coordinates": [171.12763601148038, 52.791887387283225]}}, {"type": "Feature", "properties": {"norad_id": 34007, "name": "COSMOS 2251 DEB", "group": "cosmos-2251-debris", "lat": -57.76960910196503, "lon": -34.668834850606025, "alt_km": 715.5023161161316, "timestamp": "2025-12-09T21:34:11.802858+00:00", "meta": {"OBJECT_NAME": "COSMOS 2251 DEB", "OBJECT_ID": "1993-036GS", "EPOCH": "2025-12-09T02:10:58.216512", "MEAN_MOTION": 14.64744515, "ECCENTRICITY": 0.0044429, "INCLINATION": 74.0194, "RA_OF_ASC_NODE": 353.9199, "ARG_OF_PERICENTER": 130.059, "MEAN_ANOMALY": 230.4489, "EPHEMERIS_TYPE": 0, "CLASSIFICATION_TYPE": "U", "NORAD_CAT_ID": 34007, "ELEMENT_SET_NO": 999, "REV_AT_EPOCH": 89026, "BSTAR": 0.00081382105, "MEAN_MOTION_DOT": 4.371e-05, "MEAN_MOTION_DDOT": 0}, "tle": {"line1": "1 34007U 93036GS  25343.09095158  .00004371  00000+0  81382-3 0  9998", "line2": "2 34007  74.0194 353.9199 0044429 130.0590 230.4489 14.64744515890267"}}, "geometry": {"type": "Point", "coordinates": [-34.668834850606025, -57.76960910196503]}}, {"type": "Feature", "properties": {"norad_id": 34008, "name": "COSMOS 2251 DEB", "group": "cosmos-2251-debris", "lat": -33.04990303386868, "lon": -35.02421677394092, "alt_km": 769.7847403664027, "timestamp": "2025-12-09T21:34:11.802868+00:00", "meta": {"OBJECT_NAME": "COSMOS 2251 DEB", "OBJECT_ID": "1993-036GT", "EPOCH": "2025-12-09T10:45:27.807264", "MEAN_MOTION": 14.33143006, "ECCENTRICITY": 0.00241933, "INCLINATION": 74.0341, "RA_OF_ASC_NODE": 336.534, "ARG_OF_PERICENTER": 332.3519, "MEAN_ANOMALY": 189.8289, "EPHEMERIS_TYPE": 0, "CLASSIFICATION_TYPE": "U", "NORAD_CAT_ID": 34008, "ELEMENT_SET_NO": 999, "REV_AT_EPOCH": 87917, "BSTAR": 0.00022644034, "MEAN_MOTION_DOT": 5.97e-06, "MEAN_MOTION_DDOT": 0}, "tle": {"line1": "1 34008U 93036GT  25343.44823851  .00000597  00000+0  22644-3 0  9999", "line2": "2 34008  74.0341 336.5340 0024193 332.3519 189.8289 14.33143006879177"}}, "geometry": {"type": "Point", "coordinates": [-35.02421677394092, -33.04990303386868]}}, {"type": "Feature", "properties": {"norad_id": 34009, "name": "COSMOS 2251 DEB", "group": "cosmos-2251-debris", "lat": 0.37986302014811585, "lon": -17.76210348375849, "alt_km": 771.9330618581644, "timestamp": "2025-12-09T21:34:11.802878+00:00", "meta": {"OBJECT_NAME": "COSMOS 2251 DEB", "OBJECT_ID": "1993-036GU", "EPOCH": "2025-12-09T10:21:25.254720", "MEAN_MOTION": 14.33218447, "ECCENTRICITY": 0.00263977, "INCLINATION": 74.037, "RA_OF_ASC_NODE": 342.9826, "ARG_OF_PERICENTER": 53.6762, "MEAN_ANOMALY": 57.4525, "EPHEMERIS_TYPE": 0, "CLASSIFICATION_TYPE": "U", "NORAD_CAT_ID": 34009, "ELEMENT_SET_NO": 999, "REV_AT_EPOCH": 87898, "BSTAR": 0.00024734564, "MEAN_MOTION_DOT": 6.57e-06, "MEAN_MOTION_DDOT": 0}, "tle": {"line1": "1 34009U 93036GU  25343.43154230  .00000657  00000+0  24735-3 0  9997", "line2": "2 34009  74.0370 342.9826 0026397  53.6762  57.4525 14.33218447878984"}}, "geometry": {"type": "Point", "coordinates": [-17.76210348375849, 0.37986302014811585]}}, {"type": "Feature", "properties": {"norad_id": 34010, "name": "COSMOS 2251 DEB", "group": "cosmos-2251-debris", "lat": 72.85989382582585, "lon": -2.2206478113286066, "alt_km": 501.91973128927657, "timestamp": "2025-12-09T21:34:11.802888+00:00", "meta": {"OBJECT_NAME": "COSMOS 2251 DEB", "OBJECT_ID": "1993-036GV", "EPOCH": "2025-12-09T06:57:53.869248", "MEAN_MOTION": 15.17705976, "ECCENTRICITY": 0.0004762, "INCLINATION": 73.9982, "RA_OF_ASC_NODE": 290.5366, "ARG_OF_PERICENTER": 65.0414, "MEAN_ANOMALY": 295.1277, "EPHEMERIS_TYPE": 0, "CLASSIFICATION_TYPE": "U", "NORAD_CAT_ID": 34010, "ELEMENT_SET_NO": 999, "REV_AT_EPOCH": 89233, "BSTAR": 0.0056684, "MEAN_MOTION_DOT": 0.00116178, "MEAN_MOTION_DDOT": 0}, "tle": {"line1": "1 34010U 93036GV  25343.29020682  .00116178  00000+0  56684-2 0  9999", "line2": "2 34010  73.9982 290.5366 0004762  65.0414 295.1277 15.17705976892334"}}, "geometry": {"type": "Point", "coordinates": [-2.2206478113286066, 72.85989382582585]}}, {"type": "Feature", "properties": {"norad_id": 34011, "name": "COSMOS 2251 DEB", "group": "cosmos-2251-debris", "lat": -71.93379381744143, "lon": -86.06723452642026, "alt_km": 779.3608267771333, "timestamp": "2025-12-09T21:34:11.802898+00:00", "meta": {"OBJECT_NAME": "COSMOS 2251 DEB", "OBJECT_ID": "1993-036GW", "EPOCH": "2025-12-09T10:17:26.068416", "MEAN_MOTION": 14.41745171, "ECCENTRICITY": 0.00353608, "INCLINATION": 74.0156, "RA_OF_ASC_NODE": 336.2929, "ARG_OF_PERICENTER": 60.9751, "MEAN_ANOMALY": 299.4941, "EPHEMERIS_TYPE": 0, "CLASSIFICATION_TYPE": "U", "NORAD_CAT_ID": 34011, "ELEMENT_SET_NO": 999, "REV_AT_EPOCH": 87868, "BSTAR": 0.0012546177, "MEAN_MOTION_DOT": 4.101e-05, "MEAN_MOTION_DDOT": 0}, "tle": {"line1": "1 34011U 93036GW  25343.42877394  .00004101  00000+0  12546-2 0  9996", "line2": "2 34011  74.0156 336.2929 0035360  60.9751 299.4941 14.41745171878683"}}, "geometry": {"type": "Point", "coordinates": [-86.06723452642026, -71.93379381744143]}}]}